GAOFEN-11 01            
1 43585U 18063A   26156.26926012  .00013162  00000+0  19816-3 0  9991
2 43585  97.1295 223.1845 0004460  39.0700 321.0876 15.54931181438491
ICESAT-2                
1 43613U 18070A   26156.10676832  .00011750  00000+0  42618-3 0  9993
2 43613  92.0073 287.7168 0004740 120.7328 239.4389 15.28300077430612
HYSIS                   
1 43719U 18096A   26156.30169677  .00001383  00000+0  19574-3 0  9990
2 43719  97.9839 223.1421 0001584 114.7719 245.3656 14.78671500405665
KAZSTSAT                
1 43783U 18099AB  26156.08876075  .00001316  00000+0  11076-3 0  9991
2 43783  97.4265 188.5679 0007517 101.2233 258.9836 14.99832770409493
SAUDISAT 5A             
1 43831U 18102A   26156.31151600  .00005881  00000+0  21820-3 0  9995
2 43831  97.3068 218.1220 0010095 166.7479 193.4028 15.27919944413865
SAUDISAT 5B             
1 43833U 18102C   26156.33238045  .00005605  00000+0  20644-3 0  9995
2 43833  97.3175 221.1906 0010733 169.3450 190.8019 15.28183435413981
GAOFEN-10R              
1 44622U 19066A   26156.27912075  .00001255  00000+0  16098-3 0  9992
2 44622  98.0497 109.7722 0005792 161.3049 198.8378 14.83033292360617
CARTOSAT-3              
1 44804U 19081A   26155.77478366  .00003923  00000+0  18847-3 0  9993
2 44804  97.4308 217.8408 0012327 187.9749 172.1292 15.19359044361581
GAOFEN-12 01            
1 44819U 19082A   26156.31938377  .00000435  00000+0  63545-4 0  9995
2 44819  97.8101 163.0122 0002518  84.0633 276.0866 14.80448464352333
CSG-1                   
1 44873U 19092A   26156.30451039  .00000474  00000+0  66084-4 0  9994
2 44873  97.8887 340.0793 0001429  91.2730 268.8647 14.82154339349714
NEMO-HD                 
1 46277U 20061F   26156.33808957  .00010081  00000+0  22045-3 0  9993
2 46277  97.1921 218.4123 0002657  94.5531 265.6022 15.44344556320150
SENTINEL-6A             
1 46984U 20086A   26155.20295370 -.00000057  00000+0  18589-4 0  9991
2 46984  66.0385 162.0209 0007954 270.1989  89.8115 12.80929619258668
CAS500-1                
1 47932U 21022A   26156.28055053  .00006201  00000+0  28937-3 0  9990
2 47932  97.3909  51.7738 0004495 349.5904  10.5237 15.20187998288951
GAOFEN-12 02            
1 48079U 21026A   26156.26157961  .00000421  00000+0  62226-4 0  9994
2 48079  97.9920 154.4912 0003328 275.9404  84.1429 14.80286440279990
PLEIADES NEO 3          
1 48268U 21034A   26156.29989779  .00000266  00000+0  40413-4 0  9997
2 48268  97.8936 231.2380 0001376  98.7281 261.4088 14.81673399275894
PLEIADES NEO 4          
1 49070U 21073E   26155.45573171  .00001657  00000+0  21714-3 0  9991
2 49070  97.8930 230.4012 0001444  87.6628 272.4750 14.81677018259488
LANDSAT 9               
1 49260U 21088A   26156.04192041  .00000422  00000+0  10362-3 0  9993
2 49260  98.1854 226.3638 0001503  95.7050 264.4320 14.57126109249230
CSG-2                   
1 51444U 22008A   26156.27073476  .00000563  00000+0  77242-4 0  9995
2 51444  97.8881 340.0410 0001463  82.8250 277.3130 14.82165156234823
GAOFEN-12 03            
1 52912U 22069A   26156.28932100  .00000553  00000+0  79831-4 0  9997
2 52912  97.8290  44.4588 0001478 109.9171 250.2200 14.80013639212851
SWOT                    
1 54754U 22173A   26155.91247162  .00000032  00000+0  23213-4 0  9990
2 54754  77.6112  51.8802 0000197  99.5238 260.5936 14.00173196177433
GAOFEN-12 04            
1 57654U 23123A   26156.30756074  .00001090  00000+0  15015-3 0  9994
2 57654  97.9129  74.4958 0001771  88.5885 271.5530 14.80204667150873
PARS 1                  
1 59065U 24039Q   26156.27252622  .00010051  00000+0  21131-3 0  9998
2 59065  97.4824 136.8199 0010595 147.7506 212.4393 15.45468996126806
RESURS-P 4              
1 59371U 24061A   26156.31101249  .00003185  00000+0  10538-3 0  9995
2 59371  97.2750 104.4177 0001259 130.2016 229.9337 15.32060243121949
LEGION 1                
1 59625U 24081A   26156.15308659  .00004170  00000+0  21677-3 0  9996
2 59625  97.5014 234.1392 0010547  56.4352 303.7887 15.16579708115711
LEGION 2                
1 59626U 24081B   26156.24888794  .00003791  00000+0  19744-3 0  9990
2 59626  97.5016 234.3320 0011920  25.5020 334.6798 15.16559812115732
ALOS-4 (DAICHI-4)       
1 60182U 24123A   26156.25512515  .00001627  00000+0  22477-3 0  9995
2 60182  97.9239 253.5963 0001687  99.2457 260.8945 14.79469322104117
LEGION 3                
1 60452U 24146A   26156.26989943  .00003983  00000+0  21763-3 0  9998
2 60452  45.0006  94.4652 0006773  93.5556 266.6098 15.15942262100218
LEGION 4                
1 60453U 24146B   26156.20704475  .00003402  00000+0  18765-3 0  9992
2 60453  44.9995 186.7133 0013958 246.2474 113.6941 15.15945894 99053
SENTINEL-2C             
1 60989U 24157A   26156.07463095  .00000121  00000+0  62929-4 0  9990
2 60989  98.5692 231.0274 0001210  79.7260 280.4059 14.30814428 91257
IONOSFERA-M 1           
1 61735U 24199A   26156.23837457  .00000051  00000+0  42603-4 0  9990
2 61735  98.7187  29.5360 0001562 126.2374 233.8949 14.22752028126008
