OBJECT_NAME,OBJECT_ID,EPOCH,MEAN_MOTION,ECCENTRICITY,INCLINATION,RA_OF_ASC_NODE,ARG_OF_PERICENTER,MEAN_ANOMALY,EPHEMERIS_TYPE,CLASSIFICATION_TYPE,NORAD_CAT_ID,ELEMENT_SET_NO,REV_AT_EPOCH,BSTAR,MEAN_MOTION_DOT,MEAN_MOTION_DDOT
GAOFEN-11 01,2018-063A,2026-06-05T06:27:44.074368,15.54931181,.00044601,97.1295,223.1845,39.0700,321.0876,0,U,43585,999,43849,.19815628E-3,.13162E-3,0
ICESAT-2,2018-070A,2026-06-05T02:33:44.782848,15.28300077,.00047408,92.0073,287.7168,120.7328,239.4389,0,U,43613,999,43061,.42618455E-3,.1175E-3,0
HYSIS,2018-096A,2026-06-05T07:14:26.600928,14.78671500,.0001584,97.9839,223.1421,114.7719,245.3656,0,U,43719,999,40566,.19574341E-3,.1383E-4,0
KAZSTSAT,2018-099AB,2026-06-05T02:07:48.928800,14.99832770,.00075171,97.4265,188.5679,101.2233,258.9836,0,U,43783,999,40949,.11076214E-3,.1316E-4,0
SAUDISAT 5A,2018-102A,2026-06-05T07:28:34.982400,15.27919944,.00100959,97.3068,218.1220,166.7479,193.4028,0,U,43831,999,41386,.21820063E-3,.5881E-4,0
SAUDISAT 5B,2018-102C,2026-06-05T07:58:37.670880,15.28183435,.00107332,97.3175,221.1906,169.3450,190.8019,0,U,43833,999,41398,.20643724E-3,.5605E-4,0
GAOFEN-10R,2019-066A,2026-06-05T06:41:56.032800,14.83033292,.00057925,98.0497,109.7722,161.3049,198.8378,0,U,44622,999,36061,.1609841E-3,.1255E-4,0
CARTOSAT-3,2019-081A,2026-06-04T18:35:41.308224,15.19359044,.00123272,97.4308,217.8408,187.9749,172.1292,0,U,44804,999,36158,.18847441E-3,.3923E-4,0
GAOFEN-12 01,2019-082A,2026-06-05T07:39:54.757728,14.80448464,.00025182,97.8101,163.0122,84.0633,276.0866,0,U,44819,999,35233,.63545135E-4,.435E-5,0
CSG-1,2019-092A,2026-06-05T07:18:29.697696,14.82154339,.00014294,97.8887,340.0793,91.2730,268.8647,0,U,44873,999,34971,.66084457E-4,.474E-5,0
NEMO-HD,2020-061F,2026-06-05T08:06:50.938848,15.44344556,.00026578,97.1921,218.4123,94.5531,265.6022,0,U,46277,999,32015,.22045337E-3,.10081E-3,0
SENTINEL-6A,2020-086A,2026-06-04T04:52:15.199680,12.80929619,.0007954,66.0385,162.0209,270.1989,89.8115,0,U,46984,999,25866,.18588762E-4,-.57E-6,0
CAS500-1,2021-022A,2026-06-05T06:43:59.565792,15.20187998,.00044958,97.3909,51.7738,349.5904,10.5237,0,U,47932,999,28895,.28936615E-3,.6201E-4,0
GAOFEN-12 02,2021-026A,2026-06-05T06:16:40.478304,14.80286440,.0003328,97.9920,154.4912,275.9404,84.1429,0,U,48079,999,27999,.62225722E-4,.421E-5,0
PLEIADES NEO 3,2021-034A,2026-06-05T07:11:51.169056,14.81673399,.00013769,97.8936,231.2380,98.7281,261.4088,0,U,48268,999,27589,.40412756E-4,.266E-5,0
PLEIADES NEO 4,2021-073E,2026-06-04T10:56:15.219744,14.81677018,.00014443,97.8930,230.4012,87.6628,272.4750,0,U,49070,999,25948,.2171362E-3,.1657E-4,0
LANDSAT 9,2021-088A,2026-06-05T01:00:21.923424,14.57126109,.00015032,98.1854,226.3638,95.7050,264.4320,0,U,49260,999,24923,.10362107E-3,.422E-5,0
CSG-2,2022-008A,2026-06-05T06:29:51.483264,14.82165156,.00014636,97.8881,340.0410,82.8250,277.3130,0,U,51444,999,23482,.77242152E-4,.563E-5,0
GAOFEN-12 03,2022-069A,2026-06-05T06:56:37.334400,14.80013639,.00014783,97.8290,44.4588,109.9171,250.2200,0,U,52912,999,21285,.79831443E-4,.553E-5,0
SWOT,2022-173A,2026-06-04T21:53:57.547968,14.00173196,.00001979,77.6112,51.8802,99.5238,260.5936,0,U,54754,999,17743,.23212668E-4,.32E-6,0
GAOFEN-12 04,2023-123A,2026-06-05T07:22:53.247936,14.80204667,.00017713,97.9129,74.4958,88.5885,271.5530,0,U,57654,999,15087,.15015378E-3,.109E-4,0
PARS 1,2024-039Q,2026-06-05T06:32:26.265408,15.45468996,.00105957,97.4824,136.8199,147.7506,212.4393,0,U,59065,999,12680,.21131082E-3,.10051E-3,0
RESURS-P 4,2024-061A,2026-06-05T07:27:51.479136,15.32060243,.00012599,97.2750,104.4177,130.2016,229.9337,0,U,59371,999,12194,.1053756E-3,.3185E-4,0
LEGION 1,2024-081A,2026-06-05T03:40:26.681376,15.16579708,.00105479,97.5014,234.1392,56.4352,303.7887,0,U,59625,999,11571,.21676544E-3,.417E-4,0
LEGION 2,2024-081B,2026-06-05T05:58:23.918016,15.16559812,.00119203,97.5016,234.3320,25.5020,334.6798,0,U,59626,999,11573,.19743587E-3,.3791E-4,0
ALOS-4 (DAICHI-4),2024-123A,2026-06-05T06:07:22.812960,14.79469322,.00016874,97.9239,253.5963,99.2457,260.8945,0,U,60182,999,10411,.22477179E-3,.1627E-4,0
LEGION 3,2024-146A,2026-06-05T06:28:39.310752,15.15942262,.00067732,45.0006,94.4652,93.5556,266.6098,0,U,60452,999,10021,.21762937E-3,.3983E-4,0
LEGION 4,2024-146B,2026-06-05T04:58:08.666400,15.15945894,.00139587,44.9995,186.7133,246.2474,113.6941,0,U,60453,999,9905,.18764599E-3,.3402E-4,0
SENTINEL-2C,2024-157A,2026-06-05T01:47:28.114080,14.30814428,.00012103,98.5692,231.0274,79.7260,280.4059,0,U,60989,999,9125,.62928553E-4,.121E-5,0
IONOSFERA-M 1,2024-199A,2026-06-05T05:43:15.562848,14.22752028,.00015623,98.7187,29.5360,126.2374,233.8949,0,U,61735,999,12600,.42603084E-4,.51E-6,0
